{
  "posts": [
    {
      "id": 1,
      "title": "hello"
    }
  ],
  "agreement":
	{
		"agreementId":1,
		"agreementText":"<p>En utilisant son Assurcard, le patient donne son accord:</p><ul><li>A l'h&ocirc;pital, de transmettre directement les factures concernant les frais d'hospitalisation &agrave; Assurcard virtual Company qui en fera l'avance</li></ul><p>&nbsp;</p><ul><li>Au m&eacute;decin traitant de communiquer toutes les donn&eacute;es m&eacute;dicales concernant son hospitalisation au m&eacute;decin conseil de Assurcard Virtual Company</li></ul><p>&nbsp;</p><ul><li>A Pulsar, d'utiliser toutes les donn&eacute;es &eacute;chang&eacute;es dans le cadre du suivi informatique du dossier</li></ul><p>Et voila le travail !</p>"
	},
	"province":[
	{"provinceId":1,"provinceName":"Brabant flamand"},
	{"provinceId":2,"provinceName":"Flandre orientale"},
	{"provinceId":3,"provinceName":"Flandre occidentale"},
	{"provinceId":4,"provinceName":"Anvers"},
	{"provinceId":5,"provinceName":"Liège"},
	{"provinceId":6,"provinceName":"Luxembourg"},
	{"provinceId":7,"provinceName":"Namur"},
	{"provinceId":8,"provinceName":"Brabant wallon"},
	{"provinceId":9,"provinceName":"Bruxelles"},
	{"provinceId":10,"provinceName":"Hainaut"},
	{"provinceId":11,"provinceName":"Limbourg"}
	],
  "language": [
				{
			  "RefLanguageId": 1,
			  "LanguageCode": "FR",
			  "Description": "Je parle Français"
				},
				{
				  "RefLanguageId": 2,
				  "LanguageCode": "EN",
				  "Description": "I speak English"
				},
				{
				  "RefLanguageId": 3,
				  "LanguageCode": "NL",
				  "Description": "Ik spreek Nederlands"
				},
				{
				  "RefLanguageId": 4,
				  "LanguageCode": "DE",
				  "Description": "Ich spreche Deutsch"
				}
  ],
  "insurer":
  [{"insurerid":"001","insurerNameFR":"Vivium"},{"insurerid":"888","insurerNameFR":"AssurCard Virtual Company"},{"insurerid":"003","insurerNameFR":"kbc"},{"insurerid":"004","insurerNameFR":"Ethias"},{"insurerid":"005","insurerNameFR":"Baloise Insurance (anciennement Mercator)"},{"insurerid":"007","insurerNameFR":"Fidea"},{"insurerid":"008","insurerNameFR":"Fédérale Assurance"},{"insurerid":"009","insurerNameFR":"MedExel"},{"insurerid":"014","insurerNameFR":"HospiPlus (VNZ en NZVL"},{"insurerid":"015","insurerNameFR":"Hospitalia - Mutualités Libres"},{"insurerid":"999","insurerNameFR":"Assurcard Testing"},{"insurerid":"010","insurerNameFR":"Vanbreda Risk \u0026 Benefits"},{"insurerid":"016","insurerNameFR":"HealthCare4U"},{"insurerid":"011","insurerNameFR":"Belfius Assurances"},{"insurerid":"012","insurerNameFR":"LAP"},{"insurerid":"002","insurerNameFR":"Allianz"}],
  "city":[{"cityId":1,"provinceId":2,"cityName":"Aalst","postalCode":"9300"},{"cityId":4,"provinceId":4,"cityName":"Antwerpen","postalCode":"2018"},{"cityId":5,"provinceId":6,"cityName":"Arlon","postalCode":"6700"},{"cityId":7,"provinceId":10,"cityName":"Ath","postalCode":"7800"},{"cityId":8,"provinceId":7,"cityName":"Auvelais","postalCode":"5060"},{"cityId":9,"provinceId":10,"cityName":"Baudour","postalCode":"7331"},{"cityId":13,"provinceId":4,"cityName":"Bonheiden","postalCode":"2820"},{"cityId":16,"provinceId":4,"cityName":"Bornem","postalCode":"2880"},{"cityId":21,"provinceId":3,"cityName":"Brugge","postalCode":"8000"},{"cityId":22,"provinceId":9,"cityName":"Bruxelles / Brussel","postalCode":"1000"},{"cityId":24,"provinceId":10,"cityName":"Charleroi","postalCode":"6000"},{"cityId":26,"provinceId":10,"cityName":"Chimay","postalCode":"6460"},{"cityId":27,"provinceId":2,"cityName":"Dendermonde","postalCode":"9200"},{"cityId":28,"provinceId":4,"cityName":"Deurne","postalCode":"2100"},{"cityId":29,"provinceId":1,"cityName":"Diest","postalCode":"3290"},{"cityId":30,"provinceId":7,"cityName":"Dinant","postalCode":"5500"},{"cityId":32,"provinceId":4,"cityName":"Edegem","postalCode":"2650"},{"cityId":34,"provinceId":5,"cityName":"Eupen","postalCode":"4700"},{"cityId":36,"provinceId":4,"cityName":"Geel","postalCode":"2440"},{"cityId":37,"provinceId":11,"cityName":"Genk","postalCode":"3600"},{"cityId":38,"provinceId":2,"cityName":"Gent","postalCode":"9000"},{"cityId":40,"provinceId":10,"cityName":"Gilly","postalCode":"6060"},{"cityId":41,"provinceId":10,"cityName":"Gosselies","postalCode":"6041"},{"cityId":43,"provinceId":1,"cityName":"Halle","postalCode":"1500"},{"cityId":45,"provinceId":11,"cityName":"Hasselt","postalCode":"3500"},{"cityId":47,"provinceId":4,"cityName":"Herentals","postalCode":"2200"},{"cityId":50,"provinceId":5,"cityName":"Herstal","postalCode":"4040"},{"cityId":51,"provinceId":11,"cityName":"Heusden-Zolder","postalCode":"3550"},{"cityId":54,"provinceId":10,"cityName":"Hornu","postalCode":"7301"},{"cityId":55,"provinceId":5,"cityName":"Huy","postalCode":"4500"},{"cityId":56,"provinceId":3,"cityName":"Ieper","postalCode":"8900"},{"cityId":61,"provinceId":3,"cityName":"Kortrijk","postalCode":"8500"},{"cityId":62,"provinceId":10,"cityName":"La Louvière","postalCode":"7100"},{"cityId":64,"provinceId":1,"cityName":"Leuven","postalCode":"3000"},{"cityId":65,"provinceId":6,"cityName":"Libramont","postalCode":"6800"},{"cityId":66,"provinceId":5,"cityName":"Liège","postalCode":"4000"},{"cityId":67,"provinceId":4,"cityName":"Lier","postalCode":"2500"},{"cityId":73,"provinceId":5,"cityName":"Malmédy","postalCode":"4960"},{"cityId":75,"provinceId":4,"cityName":"Mechelen","postalCode":"2800"},{"cityId":79,"provinceId":4,"cityName":"Mol","postalCode":"2400"},{"cityId":80,"provinceId":10,"cityName":"Mons","postalCode":"7000"},{"cityId":82,"provinceId":7,"cityName":"Yvoir","postalCode":"5530"},{"cityId":83,"provinceId":10,"cityName":"Montignies-sur-Sambre","postalCode":"6061"},{"cityId":84,"provinceId":10,"cityName":"Montigny-le-Tilleul","postalCode":"6110"},{"cityId":86,"provinceId":10,"cityName":"Mouscron","postalCode":"7700"},{"cityId":87,"provinceId":7,"cityName":"Namur","postalCode":"5000"},{"cityId":91,"provinceId":3,"cityName":"Oostende","postalCode":"8400"},{"cityId":92,"provinceId":8,"cityName":"Ottignies","postalCode":"1340"},{"cityId":93,"provinceId":2,"cityName":"Oudenaarde","postalCode":"9700"},{"cityId":98,"provinceId":3,"cityName":"Roeselare","postalCode":"8800"},{"cityId":102,"provinceId":5,"cityName":"Saint-Vith","postalCode":"4780"},{"cityId":103,"provinceId":5,"cityName":"Seraing","postalCode":"4100"},{"cityId":104,"provinceId":3,"cityName":"Sijsele-Damme","postalCode":"8340"},{"cityId":105,"provinceId":11,"cityName":"Sint-Truiden","postalCode":"3800"},{"cityId":106,"provinceId":10,"cityName":"Soignies","postalCode":"7060"},{"cityId":108,"provinceId":2,"cityName":"Sint-Niklaas","postalCode":"9100"},{"cityId":110,"provinceId":1,"cityName":"Tienen","postalCode":"3300"},{"cityId":111,"provinceId":11,"cityName":"Tongeren","postalCode":"3700"},{"cityId":112,"provinceId":10,"cityName":"Tournai","postalCode":"7500"},{"cityId":113,"provinceId":8,"cityName":"Tubize","postalCode":"1480"},{"cityId":114,"provinceId":4,"cityName":"Turnhout","postalCode":"2300"},{"cityId":115,"provinceId":5,"cityName":"Verviers","postalCode":"4800"},{"cityId":116,"provinceId":1,"cityName":"Vilvoorde","postalCode":"1800"},{"cityId":119,"provinceId":4,"cityName":"Wilrijk","postalCode":"2610"},{"cityId":120,"provinceId":2,"cityName":"Zottegem","postalCode":"9620"},{"cityId":121,"provinceId":3,"cityName":"Tielt","postalCode":"8700"},{"cityId":123,"provinceId":3,"cityName":"Veurne","postalCode":"8630"},{"cityId":124,"provinceId":3,"cityName":"Torhout","postalCode":"8820"},{"cityId":125,"provinceId":4,"cityName":"Reet (Rumst)","postalCode":"2840"},{"cityId":129,"provinceId":2,"cityName":"Deinze","postalCode":"9800"},{"cityId":130,"provinceId":2,"cityName":"Eeklo","postalCode":"9900"},{"cityId":131,"provinceId":2,"cityName":"Lokeren","postalCode":"9160"},{"cityId":132,"provinceId":2,"cityName":"Ronse","postalCode":"9600"},{"cityId":135,"provinceId":3,"cityName":"Izegem","postalCode":"8870"},{"cityId":140,"provinceId":5,"cityName":"Tinlot","postalCode":"4557"},{"cityId":148,"provinceId":9,"cityName":"Laeken / Laken","postalCode":"1020"},{"cityId":151,"provinceId":9,"cityName":"Anderlecht","postalCode":"1070"},{"cityId":154,"provinceId":9,"cityName":"Jette","postalCode":"1090"},{"cityId":155,"provinceId":9,"cityName":"Uccle / Ukkel","postalCode":"1180"},{"cityId":156,"provinceId":9,"cityName":"Forest / Vorst","postalCode":"1190"},{"cityId":157,"provinceId":9,"cityName":"Woluwe-Saint-Lambert / Sint-Lambrechts-Woluwe","postalCode":"1200"},{"cityId":160,"provinceId":1,"cityName":"Steenokkerzeel","postalCode":"1820"},{"cityId":161,"provinceId":4,"cityName":"Anvers","postalCode":"2020"},{"cityId":164,"provinceId":4,"cityName":"Antwerpen","postalCode":"2000"},{"cityId":172,"provinceId":3,"cityName":"Brugge","postalCode":"8310"},{"cityId":186,"provinceId":6,"cityName":"Marche-en-Famenne","postalCode":"6900"},{"cityId":3022,"provinceId":9,"cityName":"Berchem-Sainte-Agathe / Sint-Agatha-Berchem","postalCode":"1082"},{"cityId":3212,"provinceId":4,"cityName":"Malle","postalCode":"2390"},{"cityId":3238,"provinceId":4,"cityName":"Brasschaat","postalCode":"2930"},{"cityId":3284,"provinceId":11,"cityName":"Maaseik","postalCode":"3680"},{"cityId":3297,"provinceId":11,"cityName":"Overpelt","postalCode":"3900"},{"cityId":3516,"provinceId":7,"cityName":"Bouge","postalCode":"5004"},{"cityId":3851,"provinceId":3,"cityName":"Knokke-Heist","postalCode":"8300"},{"cityId":3888,"provinceId":3,"cityName":"Waregem","postalCode":"8790"}],
  "hospital":[{"cityId":64,"hospitalNo":"000","hospitalName":"THIS IS A FAKE HOSPITAL","address":"Interleuvenlaan 15F 3000 Leuven Updated by FireFox"},{"cityId":98,"hospitalNo":"002","hospitalName":"Stedelijk Ziekenhuis Roeselare","address":"Brugsesteenweg 90"},{"cityId":73,"hospitalNo":"004","hospitalName":"Clinique Reine Astrid","address":"Rue Devant les Religieuses 2"},{"cityId":87,"hospitalNo":"006","hospitalName":"CHR de Namur","address":"Avenue Albert 1er 185"},{"cityId":106,"hospitalNo":"007","hospitalName":"C.H.R. de la Haute Senne","address":"Boulevard Roosevelt 17"},{"cityId":9,"hospitalNo":"008","hospitalName":"RHMS - Clinique Louis Caty","address":"Rue Louis Caty 136"},{"cityId":161,"hospitalNo":"009","hospitalName":"ZNA","address":"Lindendreef 1"},{"cityId":40,"hospitalNo":"010","hospitalName":"Hôpitaux  St.-Joseph-Ste.-Thérèse-IMTR asbl","address":"rue de la Duchère 6"},{"cityId":27,"hospitalNo":"012","hospitalName":"AZ St-Blasius","address":"Kroonveldlaan 50"},{"cityId":34,"hospitalNo":"015","hospitalName":"St. Nikolaus-Hospital Eupen","address":"Hufengasse 4-6"},{"cityId":38,"hospitalNo":"017","hospitalName":"AZ Maria Middelares","address":"Kortrijksesteenweg 1026"},{"cityId":115,"hospitalNo":"020","hospitalName":"CH Peltzer - La Tourelle","address":"Rue du Parc 29"},{"cityId":50,"hospitalNo":"023","hospitalName":"Clinique André Renard","address":"Rue André Renard 1"},{"cityId":75,"hospitalNo":"026","hospitalName":"AZ Sint-Maarten","address":"Leopoldstraat 2"},{"cityId":83,"hospitalNo":"027","hospitalName":"CH Notre Dame et Reine Fabiola","address":"Avenue du Centenaire 73"},{"cityId":104,"hospitalNo":"032","hospitalName":"AZ Alma","address":"Gentse Steenweg 132"},{"cityId":82,"hospitalNo":"039","hospitalName":"Cliniques Universitaires de Mont-Godinne","address":"Avenue Docteur G. Therasse 1"},{"cityId":103,"hospitalNo":"042","hospitalName":"CH du Bois de l Abbaye et de Hesbaye","address":"Rue Laplace 40"},{"cityId":92,"hospitalNo":"043","hospitalName":"Clinique Saint-Pierre","address":"Avenue Reine Fabiola 9"},{"cityId":21,"hospitalNo":"049","hospitalName":"AZ St-Jan","address":"A. Ruddershove 10"},{"cityId":75,"hospitalNo":"055","hospitalName":"Dodoens ziekenhuis","address":"Zwartzustersvest 47"},{"cityId":56,"hospitalNo":"057","hospitalName":"Regionaal Ziekenhuis Jan Yperman","address":"Briekestraat 12"},{"cityId":114,"hospitalNo":"063","hospitalName":"AZ Turnhout","address":"Rubensstraat 166"},{"cityId":91,"hospitalNo":"067","hospitalName":"Henri Serruysziekenhuis","address":"Kaïrostraat 84"},{"cityId":55,"hospitalNo":"068","hospitalName":"Centre Hospitalier Régional de Huy","address":"Rue des Trois Ponts 2"},{"cityId":112,"hospitalNo":"071","hospitalName":"Clinique Notre Dame","address":"Avenue Delmée 9"},{"cityId":22,"hospitalNo":"076","hospitalName":"CHU Saint-Pierre","address":"Rue Haute 322"},{"cityId":148,"hospitalNo":"077","hospitalName":"CHU Brugmann","address":"Van Gehuchtenplein 4"},{"cityId":22,"hospitalNo":"079","hospitalName":"Institut Jules Bordet Instituut","address":"Héger Bordetstraat 1"},{"cityId":156,"hospitalNo":"087","hospitalName":"Hôpitaux Iris Sud - Iris Zuid Ziekenhuizen","address":"Marconistraat 142"},{"cityId":114,"hospitalNo":"090","hospitalName":"AZ Turnhout","address":"Steenweg op Merksplas 44"},{"cityId":62,"hospitalNo":"096","hospitalName":"CHU de Tivoli","address":"Avenue Max Buset 34"},{"cityId":67,"hospitalNo":"097","hospitalName":"Heilig Hart Ziekenhuis vzw","address":"Mechelsestraat 24"},{"cityId":119,"hospitalNo":"099","hospitalName":"Gasthuiszusters Antwerpen","address":"Oosterveldlaan 24"},{"cityId":4,"hospitalNo":"100","hospitalName":"AZ St-Vincentiusziekenhuis vzw","address":"Sint-Vincentiusstraat 20"},{"cityId":79,"hospitalNo":"102","hospitalName":"H. Hartziekenhuis","address":"Gasthuisstraat 1"},{"cityId":8,"hospitalNo":"103","hospitalName":"CHR du Val de Sambre","address":"Rue Chère Voie 75"},{"cityId":16,"hospitalNo":"104","hospitalName":"Sint-Jozefkliniek","address":"Kasteelstraat 23"},{"cityId":43,"hospitalNo":"106","hospitalName":"Regionaal Ziekenhuis St-Maria ","address":"Ziekenhuislaan 100"},{"cityId":64,"hospitalNo":"108","hospitalName":"Regionaal Ziekenhuis H. Hart vzw","address":"Naamsestraat 105"},{"cityId":110,"hospitalNo":"109","hospitalName":"AZ Heilige Hart Tienen","address":"Kliniekstraat 45"},{"cityId":22,"hospitalNo":"110","hospitalName":"Clinique Saint-Jean - Kliniek Sint-Jan","address":"Boulevard du Jardin Botanique 32"},{"cityId":155,"hospitalNo":"111","hospitalName":"Cliniques de L\u0027 Europe - Europa Ziekenhuizen","address":"Cliniques de L\u0027 Europe - Europa Ziekenhuizen"},{"cityId":98,"hospitalNo":"117","hospitalName":"H.-Hartziekenhuis Roeselare-Menen vzw","address":"Wilgenstraat 2"},{"cityId":135,"hospitalNo":"124","hospitalName":"Sint-Jozefskliniek","address":"Roeselaarsestraat 47"},{"cityId":1,"hospitalNo":"126","hospitalName":"O.L.-Vrouwziekenhuis","address":"O.L.-Vrouwziekenhuis"},{"cityId":129,"hospitalNo":"134","hospitalName":"Sint-Vincentiusziekenhuis","address":"Schutterijstraat 34"},{"cityId":172,"hospitalNo":"140","hospitalName":"AZ Sint-Lucas vzw","address":"Sint-Lucaslaan 29"},{"cityId":154,"hospitalNo":"143","hospitalName":"UZ Brussel","address":"Laarbeeklaan 101"},{"cityId":62,"hospitalNo":"146","hospitalName":"CH Jolimont-Lobbes","address":"Rue Ferrer 159"},{"cityId":148,"hospitalNo":"150","hospitalName":"Universitair Kinderziekenhuis Koningin Fabiola","address":"J.J. Crocqlaan 15"},{"cityId":66,"hospitalNo":"152","hospitalName":"Les Cliniques Saint-Joseph","address":"Rue de Hesbaye 75"},{"cityId":66,"hospitalNo":"158","hospitalName":"CH St-Vincent Ste-Elisabeth","address":"Rue François Lefebvre 207"},{"cityId":45,"hospitalNo":"159","hospitalName":"CAZ Midden Limburg","address":"Salvatorstraat 20"},{"cityId":186,"hospitalNo":"164","hospitalName":"IFAC","address":"Rue du Vivier 21"},{"cityId":87,"hospitalNo":"166","hospitalName":"Clinique et Maternité Sainte Elisabeth","address":"Place Louise Godin 15"},{"cityId":65,"hospitalNo":"168","hospitalName":"Centre Hospitalier de l\u0027Ardenne","address":"qsdfqsdf"},{"cityId":93,"hospitalNo":"170","hospitalName":"AZ Oudenaarde","address":"Minderbroederstraat 3"},{"cityId":1,"hospitalNo":"176","hospitalName":"Algemeen Stedelijk Ziekenhuis ","address":"Merestraat 80"},{"cityId":116,"hospitalNo":"204","hospitalName":"AZ Jan Portaels Vilvoorde","address":"Gendarmeriestraat 65"},{"cityId":120,"hospitalNo":"217","hospitalName":"AZ St-Elisabeth","address":"Godveerdegemstraat 69"},{"cityId":130,"hospitalNo":"222","hospitalName":"vzw Elisabethziekenhuis - Heilig Hartkliniek","address":"Moeie 18"},{"cityId":32,"hospitalNo":"236","hospitalName":"RevArte","address":"Drie Eikenstraat 659"},{"cityId":140,"hospitalNo":"242","hospitalName":"Centre Neurologique de Fraiture en Condroz","address":"Champ des Alouettes 70 A"},{"cityId":45,"hospitalNo":"243","hospitalName":"Virga Jesse Ziekenhuis","address":"Stadsomvaart 11"},{"cityId":5,"hospitalNo":"246","hospitalName":"Les Cliniques du Sud-Luxembourg","address":"Rue des Déportés 137"},{"cityId":86,"hospitalNo":"247","hospitalName":"CHMOUSCRON - Site CHR ou Site REFUGE","address":"Rue du Couvent 39"},{"cityId":26,"hospitalNo":"249","hospitalName":"Centre de Santé des Fagnes","address":"Boulevard Louise 18"},{"cityId":80,"hospitalNo":"254","hospitalName":"CHU Ambroise Paré","address":"Boulevard Kennedy 2"},{"cityId":102,"hospitalNo":"257","hospitalName":"Klinik St.-Josef","address":"Klosterstrasse 9"},{"cityId":30,"hospitalNo":"264","hospitalName":"Centre Hospitalier de Dinant","address":"Rue Saint - Jacques 501"},{"cityId":131,"hospitalNo":"265","hospitalName":"AZ Lokeren","address":"Lepelstraat 2"},{"cityId":80,"hospitalNo":"266","hospitalName":"C.H.R. Clinique St.-Joseph-Hôpital De Warquignies","address":"Avenue B. De Constantinople 5"},{"cityId":38,"hospitalNo":"290","hospitalName":"AZ Sint-Lucas","address":"Groenebriel 1"},{"cityId":32,"hospitalNo":"300","hospitalName":"Universitair Ziekenhuis Antwerpen","address":"Wilrijkstraat 10"},{"cityId":47,"hospitalNo":"308","hospitalName":"AZ St.-Elisabeth","address":"Nederrij 133"},{"cityId":123,"hospitalNo":"310","hospitalName":"Sint-Augustinuskliniek","address":"Iepersesteenweg 100"},{"cityId":125,"hospitalNo":"314","hospitalName":"AZ H. Familie vzw","address":"S Herenbaan 172"},{"cityId":64,"hospitalNo":"322","hospitalName":"UZ Leuven","address":"Herestraat 49"},{"cityId":84,"hospitalNo":"325","hospitalName":"CHU de Charleroi Site André Vésale","address":"Rue de Gozée 706"},{"cityId":155,"hospitalNo":"332","hospitalName":"CHIREC","address":"rue Edith Cavell, 32"},{"cityId":113,"hospitalNo":"346","hospitalName":"CH de Tubize-Nivelles","address":"Avenue De Scandiano 8"},{"cityId":37,"hospitalNo":"371","hospitalName":"Ziekenhuizen Oost-Limburg","address":"Schiepse Bos 6"},{"cityId":124,"hospitalNo":"378","hospitalName":"Sint-Rembert","address":"Sint-Rembertlaan 21"},{"cityId":3851,"hospitalNo":"392","hospitalName":"V.Z.W. Gezondheidszorg Oostkust ","address":"Graaf Jansdijk 162"},{"cityId":121,"hospitalNo":"395","hospitalName":"Sint-Andriesziekenhuis","address":"Krommewalstraat 9-11"},{"cityId":61,"hospitalNo":"396","hospitalName":"AZ Groeninge","address":"Loofstraat 43"},{"cityId":3888,"hospitalNo":"397","hospitalName":"O.L.V. Van Lourdes Ziekenhuis Waregem","address":"Vijfseweg 150"},{"cityId":157,"hospitalNo":"403","hospitalName":"Cliniques  Saint-Luc asbl","address":"Avenue Hippocrate 10"},{"cityId":151,"hospitalNo":"406","hospitalName":"ULB Hôpital Erasme - UZB Erasmus Ziekenhuis","address":"Route de Lennik 808"},{"cityId":41,"hospitalNo":"409","hospitalName":"Clinique Notre-Dame de Grâce","address":"Chaussée de Nivelles 212"},{"cityId":54,"hospitalNo":"410","hospitalName":"Centre Hospitalier Hornu-Frameries","address":"Route de Mons -Valenciennes 63"},{"cityId":66,"hospitalNo":"412","hospitalName":"CHR de la Citadelle","address":"Boulevard du 12è de ligne 1"},{"cityId":91,"hospitalNo":"525","hospitalName":"AZ Damiaan Oostende","address":"Nieuwpoortsesteenweg 57"},{"cityId":112,"hospitalNo":"534","hospitalName":"Centre Hospitalier de Wallonie Picarde (CHwapi)","address":"Boulevard Roi Albert 1"},{"cityId":3212,"hospitalNo":"536","hospitalName":"AZ Sint-Jozef","address":"Oude Liersebaan 4"},{"cityId":3022,"hospitalNo":"547","hospitalName":"asbl Hôpital français","address":"avenue J. Goffin, 180"},{"cityId":132,"hospitalNo":"550","hospitalName":"VZW Werken Glorieux","address":"Glorieuxlaan 55"},{"cityId":108,"hospitalNo":"595","hospitalName":"AZ Nikolaas","address":"Hospitaalstraat 17"},{"cityId":164,"hospitalNo":"659","hospitalName":"Apra Kliniek","address":"Kipdorpsvest 49-51"},{"cityId":38,"hospitalNo":"670","hospitalName":"UZ Gent","address":"De Pintelaan 185"},{"cityId":28,"hospitalNo":"682","hospitalName":"Monica vzw","address":"Florent Pauwelslei 1"},{"cityId":13,"hospitalNo":"689","hospitalName":"Imeldaziekenhuis","address":"Imeldalaan 9"},{"cityId":160,"hospitalNo":"693","hospitalName":"Nationaal Multiple Sclerose Centrum v.z.w.","address":"Vanheylenstraat 16"},{"cityId":3516,"hospitalNo":"706","hospitalName":"Clinique Saint-Luc","address":"Rue Saint-Luc 8"},{"cityId":66,"hospitalNo":"707","hospitalName":"CHU de Liége Hôpital du Sart Tilman","address":"Domaine Universitaire du Sart Timan Bâtiment B35"},{"cityId":36,"hospitalNo":"709","hospitalName":"AZ St.-Dimpna","address":"J.B. Stessensstraat 2"},{"cityId":3238,"hospitalNo":"710","hospitalName":"AZ Klina","address":"Augustijnslei 100"},{"cityId":29,"hospitalNo":"712","hospitalName":"AZ Diest","address":"Michel Theysstraat 18"},{"cityId":38,"hospitalNo":"713","hospitalName":"AZ Jan Palfijn","address":"Henri Dunantlaan 5"},{"cityId":51,"hospitalNo":"714","hospitalName":"CAZ Midden-Limburg ","address":"Pastoor J. Paquaylaan 129"},{"cityId":105,"hospitalNo":"715","hospitalName":"Regionaal Ziekenhuis St-Trudo","address":"Diestersteenweg 100"},{"cityId":111,"hospitalNo":"716","hospitalName":"AZ Vesalius","address":"Hazelereik 51"},{"cityId":3284,"hospitalNo":"717","hospitalName":"Ziekenhuis Maas en Kempen","address":"Mgr. Koningsstraat 10"},{"cityId":24,"hospitalNo":"718","hospitalName":"CHU Charleroi","address":"Boulevard Paul Janson 92"},{"cityId":3297,"hospitalNo":"719","hospitalName":"Mariaziekenhuis Noord-Limburg","address":"Maesensveld 1"},{"cityId":151,"hospitalNo":"723","hospitalName":"Clinique Ste.-Anne St.-Remy Kliniek","address":"66 Boulevard Jules Graindor"},{"cityId":7,"hospitalNo":"724","hospitalName":"Hôpital de la Madeleine","address":"rue Maria Thomée 1"},{"cityId":112,"hospitalNo":"725","hospitalName":"Institut Medico Chirurgical de Tournai (I.M.C.)","address":"Chaussée St-Amand 80"},{"cityId":45,"hospitalNo":"999","hospitalName":"This is a TEST Hospital","address":"Testadres 999"},{"cityId":1,"hospitalNo":"VNZ","hospitalName":"HospiPlus","address":"Alost"}],
  "question":[{"item":1,"aboveItem":0,"predItem":0,"type":"Q","languageCode":"FR","questionName":"Veuillez donner le motif de votre hospitalisation?"},{"item":2,"aboveItem":1,"predItem":0,"type":"A","languageCode":"FR","questionName":"une maladie"},{"item":152,"aboveItem":1,"predItem":1,"type":"A","languageCode":"FR","questionName":"un accident"},{"item":211,"aboveItem":1,"predItem":2,"type":"A","languageCode":"FR","questionName":"un accouchement"},{"item":212,"aboveItem":1,"predItem":3,"type":"A","languageCode":"FR","questionName":"une opération chirurgicale"},{"item":309,"aboveItem":1,"predItem":4,"type":"A","languageCode":"FR","questionName":"des soins ou une chirurgie dentaire(s)"},{"item":316,"aboveItem":1,"predItem":5,"type":"A","languageCode":"FR","questionName":"des examens médicaux"},{"item":322,"aboveItem":1,"predItem":6,"type":"A","languageCode":"FR","questionName":"je ne connais pas le motif de l\u0027 hospitalisation"},{"item":3,"aboveItem":2,"predItem":0,"type":"Q","languageCode":"FR","questionName":"De quelle maladie s\u0027agit - il ?"},{"item":4,"aboveItem":3,"predItem":0,"type":"A","languageCode":"FR","questionName":"d\u0027une maladie infectieuse"},{"item":22,"aboveItem":3,"predItem":1,"type":"A","languageCode":"FR","questionName":"d\u0027une maladie du métabolisme et/ou des glandes"},{"item":31,"aboveItem":3,"predItem":2,"type":"A","languageCode":"FR","questionName":"d\u0027une maladie du sang"},{"item":38,"aboveItem":3,"predItem":3,"type":"A","languageCode":"FR","questionName":"d\u0027une maladie neurologique et/ou mentale"},{"item":53,"aboveItem":3,"predItem":4,"type":"A","languageCode":"FR","questionName":"d\u0027une maladie des oreilles, du nez ou des yeux"},{"item":66,"aboveItem":3,"predItem":5,"type":"A","languageCode":"FR","questionName":"d\u0027une maladie du coeur ou des vaisseaux"},{"item":80,"aboveItem":3,"predItem":6,"type":"A","languageCode":"FR","questionName":"d\u0027une maladie des voies respiratoires"},{"item":89,"aboveItem":3,"predItem":7,"type":"A","languageCode":"FR","questionName":"d\u0027une maladie du système digestif"},{"item":103,"aboveItem":3,"predItem":8,"type":"A","languageCode":"FR","questionName":"d\u0027une maladie des reins  ou des voies urinaires"},{"item":116,"aboveItem":3,"predItem":9,"type":"A","languageCode":"FR","questionName":"d\u0027une maladie gynécologique"},{"item":127,"aboveItem":3,"predItem":10,"type":"A","languageCode":"FR","questionName":"d\u0027une maladie de la peau"},{"item":135,"aboveItem":3,"predItem":11,"type":"A","languageCode":"FR","questionName":"d\u0027une maladie des os et/ou des articulations"},{"item":151,"aboveItem":3,"predItem":12,"type":"A","languageCode":"FR","questionName":"je ne sais pas (ou autres)"},{"item":5,"aboveItem":4,"predItem":0,"type":"Q","languageCode":"FR","questionName":"Veuillez préciser votre réponse:"},{"item":6,"aboveItem":5,"predItem":0,"type":"A","languageCode":"FR","questionName":"bronchite, pneumonie"},{"item":7,"aboveItem":5,"predItem":1,"type":"A","languageCode":"FR","questionName":"scarlatine"},{"item":8,"aboveItem":5,"predItem":2,"type":"A","languageCode":"FR","questionName":"tuberculose"},{"item":9,"aboveItem":5,"predItem":3,"type":"A","languageCode":"FR","questionName":"diphtérie"},{"item":10,"aboveItem":5,"predItem":4,"type":"A","languageCode":"FR","questionName":"poliomyélite"},{"item":11,"aboveItem":5,"predItem":5,"type":"A","languageCode":"FR","questionName":"méningite cérébro-spinale"},{"item":12,"aboveItem":5,"predItem":6,"type":"A","languageCode":"FR","questionName":"variole"},{"item":13,"aboveItem":5,"predItem":7,"type":"A","languageCode":"FR","questionName":"typhus"},{"item":14,"aboveItem":5,"predItem":8,"type":"A","languageCode":"FR","questionName":"fièvre typhoïde ou paratyphoïde"},{"item":15,"aboveItem":5,"predItem":9,"type":"A","languageCode":"FR","questionName":"charbon"},{"item":16,"aboveItem":5,"predItem":10,"type":"A","languageCode":"FR","questionName":"tétanos"},{"item":17,"aboveItem":5,"predItem":11,"type":"A","languageCode":"FR","questionName":"choléra"},{"item":18,"aboveItem":5,"predItem":12,"type":"A","languageCode":"FR","questionName":"malaria"},{"item":19,"aboveItem":5,"predItem":13,"type":"A","languageCode":"FR","questionName":"sida"},{"item":20,"aboveItem":5,"predItem":14,"type":"A","languageCode":"FR","questionName":"hépatite"},{"item":21,"aboveItem":5,"predItem":15,"type":"A","languageCode":"FR","questionName":"je ne sais pas (ou autres)"},{"item":23,"aboveItem":22,"predItem":0,"type":"Q","languageCode":"FR","questionName":"Veuillez préciser votre réponse:"},{"item":24,"aboveItem":23,"predItem":0,"type":"A","languageCode":"FR","questionName":"thyroïde (goitre)"},{"item":25,"aboveItem":23,"predItem":1,"type":"A","languageCode":"FR","questionName":"diabète"},{"item":26,"aboveItem":23,"predItem":2,"type":"A","languageCode":"FR","questionName":"goutte (hyperuricémie)"},{"item":27,"aboveItem":23,"predItem":3,"type":"A","languageCode":"FR","questionName":"tumeur"},{"item":28,"aboveItem":23,"predItem":4,"type":"A","languageCode":"FR","questionName":"maladie de Pompe"},{"item":29,"aboveItem":23,"predItem":5,"type":"A","languageCode":"FR","questionName":"chirurgie"},{"item":30,"aboveItem":23,"predItem":6,"type":"A","languageCode":"FR","questionName":"je ne sais pas (ou autres)"},{"item":32,"aboveItem":31,"predItem":0,"type":"Q","languageCode":"FR","questionName":"Veuillez préciser votre réponse:"},{"item":33,"aboveItem":32,"predItem":0,"type":"A","languageCode":"FR","questionName":"anémie"},{"item":34,"aboveItem":32,"predItem":1,"type":"A","languageCode":"FR","questionName":"leucémie"},{"item":35,"aboveItem":32,"predItem":2,"type":"A","languageCode":"FR","questionName":"maladie de Hodgkin"},{"item":36,"aboveItem":32,"predItem":3,"type":"A","languageCode":"FR","questionName":"hémorragie-hémophilie"},{"item":37,"aboveItem":32,"predItem":4,"type":"A","languageCode":"FR","questionName":"je ne sais pas (ou autres)"},{"item":39,"aboveItem":38,"predItem":0,"type":"Q","languageCode":"FR","questionName":"Veuillez préciser votre réponse:"},{"item":40,"aboveItem":39,"predItem":0,"type":"A","languageCode":"FR","questionName":"dépression, stress, angoisse"},{"item":41,"aboveItem":39,"predItem":1,"type":"A","languageCode":"FR","questionName":"dépendance (alcool, drogue, médicaments)"},{"item":42,"aboveItem":39,"predItem":2,"type":"A","languageCode":"FR","questionName":"troubles du comportement (agitation, délire)"},{"item":43,"aboveItem":39,"predItem":3,"type":"A","languageCode":"FR","questionName":"sclérose en plaques"},{"item":44,"aboveItem":39,"predItem":4,"type":"A","languageCode":"FR","questionName":"épilepsie"},{"item":45,"aboveItem":39,"predItem":5,"type":"A","languageCode":"FR","questionName":"maladie de Parkinson"},{"item":46,"aboveItem":39,"predItem":6,"type":"A","languageCode":"FR","questionName":"sclérose latérale amyotrophique"},{"item":47,"aboveItem":39,"predItem":7,"type":"A","languageCode":"FR","questionName":"problèmes musculaires"},{"item":48,"aboveItem":39,"predItem":8,"type":"A","languageCode":"FR","questionName":"maladie d\u0027Alzheimer"},{"item":49,"aboveItem":39,"predItem":9,"type":"A","languageCode":"FR","questionName":"maladie de Creutzfeld-Jacobs"},{"item":50,"aboveItem":39,"predItem":10,"type":"A","languageCode":"FR","questionName":"méningite "},{"item":51,"aboveItem":39,"predItem":11,"type":"A","languageCode":"FR","questionName":"chirurgie"},{"item":52,"aboveItem":39,"predItem":12,"type":"A","languageCode":"FR","questionName":"je ne sais pas (ou autres)"},{"item":54,"aboveItem":53,"predItem":0,"type":"Q","languageCode":"FR","questionName":"Veuillez préciser votre réponse:"},{"item":55,"aboveItem":54,"predItem":0,"type":"A","languageCode":"FR","questionName":"chirurgie de la cloison nasale"},{"item":56,"aboveItem":54,"predItem":1,"type":"A","languageCode":"FR","questionName":"sinusite"},{"item":57,"aboveItem":54,"predItem":2,"type":"A","languageCode":"FR","questionName":"chirurgie de l\u0027oreille pour décollement"},{"item":58,"aboveItem":54,"predItem":3,"type":"A","languageCode":"FR","questionName":"chirurgie de l\u0027oreille pour drains"},{"item":59,"aboveItem":54,"predItem":4,"type":"A","languageCode":"FR","questionName":"otites, écoulement"},{"item":60,"aboveItem":54,"predItem":5,"type":"A","languageCode":"FR","questionName":"cataracte"},{"item":61,"aboveItem":54,"predItem":6,"type":"A","languageCode":"FR","questionName":"glaucome"},{"item":62,"aboveItem":54,"predItem":7,"type":"A","languageCode":"FR","questionName":"strabisme"},{"item":63,"aboveItem":54,"predItem":8,"type":"A","languageCode":"FR","questionName":"décollement de la rétine"},{"item":64,"aboveItem":54,"predItem":9,"type":"A","languageCode":"FR","questionName":"myopie (keratotomie radiaire)"},{"item":65,"aboveItem":54,"predItem":10,"type":"A","languageCode":"FR","questionName":"je ne sais pas (ou autres)"},{"item":67,"aboveItem":66,"predItem":0,"type":"Q","languageCode":"FR","questionName":"Veuillez préciser votre réponse:"},{"item":68,"aboveItem":67,"predItem":0,"type":"A","languageCode":"FR","questionName":"hypertension artérielle"},{"item":69,"aboveItem":67,"predItem":1,"type":"A","languageCode":"FR","questionName":"angine de poitrine et infarctus"},{"item":70,"aboveItem":67,"predItem":2,"type":"A","languageCode":"FR","questionName":"pontage ou dilatation coronarienne"},{"item":71,"aboveItem":67,"predItem":3,"type":"A","languageCode":"FR","questionName":"varices"},{"item":72,"aboveItem":67,"predItem":4,"type":"A","languageCode":"FR","questionName":"valve(s) du coeur"},{"item":73,"aboveItem":67,"predItem":5,"type":"A","languageCode":"FR","questionName":"malformation cardiaque congénitale"},{"item":74,"aboveItem":67,"predItem":6,"type":"A","languageCode":"FR","questionName":"carrefour-prothèse vasculaire"},{"item":75,"aboveItem":67,"predItem":7,"type":"A","languageCode":"FR","questionName":"maladie de Pompe"},{"item":76,"aboveItem":67,"predItem":8,"type":"A","languageCode":"FR","questionName":"tumeur"},{"item":77,"aboveItem":67,"predItem":9,"type":"A","languageCode":"FR","questionName":"hospitalisation pour mise au point (check-up)"},{"item":78,"aboveItem":67,"predItem":10,"type":"A","languageCode":"FR","questionName":"hospitalisation pour un traitement"},{"item":79,"aboveItem":67,"predItem":11,"type":"A","languageCode":"FR","questionName":"je ne sais pas (ou autres)"},{"item":81,"aboveItem":80,"predItem":0,"type":"Q","languageCode":"FR","questionName":"Veuillez préciser votre réponse:"},{"item":82,"aboveItem":81,"predItem":0,"type":"A","languageCode":"FR","questionName":"infection (pneumonie, bronchite)"},{"item":83,"aboveItem":81,"predItem":1,"type":"A","languageCode":"FR","questionName":"asthme"},{"item":84,"aboveItem":81,"predItem":2,"type":"A","languageCode":"FR","questionName":"mucoviscidose"},{"item":85,"aboveItem":81,"predItem":3,"type":"A","languageCode":"FR","questionName":"tuberculose"},{"item":86,"aboveItem":81,"predItem":4,"type":"A","languageCode":"FR","questionName":"tumeur (cancer)"},{"item":87,"aboveItem":81,"predItem":5,"type":"A","languageCode":"FR","questionName":"chirurgie"},{"item":88,"aboveItem":81,"predItem":6,"type":"A","languageCode":"FR","questionName":"je ne sais pas (ou autres)"},{"item":90,"aboveItem":89,"predItem":0,"type":"Q","languageCode":"FR","questionName":"Veuillez préciser votre réponse:"},{"item":91,"aboveItem":90,"predItem":0,"type":"A","languageCode":"FR","questionName":"tumeur "},{"item":92,"aboveItem":90,"predItem":1,"type":"A","languageCode":"FR","questionName":"gastroplastie"},{"item":93,"aboveItem":90,"predItem":2,"type":"A","languageCode":"FR","questionName":"hernie (hiatale ou abdominale)"},{"item":94,"aboveItem":90,"predItem":3,"type":"A","languageCode":"FR","questionName":"cirrhose"},{"item":95,"aboveItem":90,"predItem":4,"type":"A","languageCode":"FR","questionName":"kyste pancréatique"},{"item":96,"aboveItem":90,"predItem":5,"type":"A","languageCode":"FR","questionName":"Crohn"},{"item":97,"aboveItem":90,"predItem":6,"type":"A","languageCode":"FR","questionName":"polypes et diverticules"},{"item":98,"aboveItem":90,"predItem":7,"type":"A","languageCode":"FR","questionName":"mucoviscidose"},{"item":99,"aboveItem":90,"predItem":8,"type":"A","languageCode":"FR","questionName":"transplantation du foie"},{"item":100,"aboveItem":90,"predItem":9,"type":"A","languageCode":"FR","questionName":"enlèvement de la vésicule"},{"item":101,"aboveItem":90,"predItem":10,"type":"A","languageCode":"FR","questionName":"opération du pancréas"},{"item":102,"aboveItem":90,"predItem":11,"type":"A","languageCode":"FR","questionName":"je ne sais pas (ou autres)"},{"item":104,"aboveItem":103,"predItem":0,"type":"Q","languageCode":"FR","questionName":"Veuillez préciser votre réponse:"},{"item":105,"aboveItem":104,"predItem":0,"type":"A","languageCode":"FR","questionName":"insuffisance et dialyse rénale"},{"item":106,"aboveItem":104,"predItem":1,"type":"A","languageCode":"FR","questionName":"lithiase rénale (calculs, pierres aux reins)"},{"item":107,"aboveItem":104,"predItem":2,"type":"A","languageCode":"FR","questionName":"tumeur"},{"item":108,"aboveItem":104,"predItem":3,"type":"A","languageCode":"FR","questionName":"prostate"},{"item":109,"aboveItem":104,"predItem":4,"type":"A","languageCode":"FR","questionName":"infection (pyélonephrite, cystite)"},{"item":110,"aboveItem":104,"predItem":5,"type":"A","languageCode":"FR","questionName":"enlèvement d\u0027un rein"},{"item":111,"aboveItem":104,"predItem":6,"type":"A","languageCode":"FR","questionName":"transplantation rénale"},{"item":112,"aboveItem":104,"predItem":7,"type":"A","languageCode":"FR","questionName":"incontinence urinaire"},{"item":113,"aboveItem":104,"predItem":8,"type":"A","languageCode":"FR","questionName":"circoncision (phimosis)"},{"item":114,"aboveItem":104,"predItem":9,"type":"A","languageCode":"FR","questionName":"prothèse pénienne"},{"item":115,"aboveItem":104,"predItem":10,"type":"A","languageCode":"FR","questionName":"je ne sais pas (ou autres)"},{"item":117,"aboveItem":116,"predItem":0,"type":"Q","languageCode":"FR","questionName":"Veuillez préciser votre réponse:"},{"item":118,"aboveItem":117,"predItem":0,"type":"A","languageCode":"FR","questionName":"suivi de grossesse"},{"item":119,"aboveItem":117,"predItem":1,"type":"A","languageCode":"FR","questionName":"tumeur ou kyste"},{"item":120,"aboveItem":117,"predItem":2,"type":"A","languageCode":"FR","questionName":"seins (hypertrophie mammaire)"},{"item":121,"aboveItem":117,"predItem":3,"type":"A","languageCode":"FR","questionName":"fertilité et fécondation assistée (in vitro)"},{"item":122,"aboveItem":117,"predItem":4,"type":"A","languageCode":"FR","questionName":"stérilisation"},{"item":123,"aboveItem":117,"predItem":5,"type":"A","languageCode":"FR","questionName":"examens médicaux"},{"item":124,"aboveItem":117,"predItem":6,"type":"A","languageCode":"FR","questionName":"chirurgie: fibrome, ovaires, matrice"},{"item":125,"aboveItem":117,"predItem":7,"type":"A","languageCode":"FR","questionName":"endométriose"},{"item":126,"aboveItem":117,"predItem":8,"type":"A","languageCode":"FR","questionName":"je ne sais pas (ou autres)"},{"item":128,"aboveItem":127,"predItem":0,"type":"Q","languageCode":"FR","questionName":"Veuillez préciser votre réponse:"},{"item":129,"aboveItem":128,"predItem":0,"type":"A","languageCode":"FR","questionName":"tumeur"},{"item":130,"aboveItem":128,"predItem":1,"type":"A","languageCode":"FR","questionName":"psoriasis"},{"item":131,"aboveItem":128,"predItem":2,"type":"A","languageCode":"FR","questionName":"allergies (eczéma)"},{"item":132,"aboveItem":128,"predItem":3,"type":"A","languageCode":"FR","questionName":"brulûres"},{"item":133,"aboveItem":128,"predItem":4,"type":"A","languageCode":"FR","questionName":"ulcère"},{"item":134,"aboveItem":128,"predItem":5,"type":"A","languageCode":"FR","questionName":"je ne sais pas (ou autres)"},{"item":136,"aboveItem":135,"predItem":0,"type":"Q","languageCode":"FR","questionName":"Veuillez préciser votre réponse:"},{"item":137,"aboveItem":136,"predItem":0,"type":"A","languageCode":"FR","questionName":"tumeur"},{"item":138,"aboveItem":136,"predItem":1,"type":"A","languageCode":"FR","questionName":"ostéomyélite"},{"item":139,"aboveItem":136,"predItem":2,"type":"A","languageCode":"FR","questionName":"le crâne"},{"item":140,"aboveItem":136,"predItem":3,"type":"A","languageCode":"FR","questionName":"de la colonne vertébrale (hernie discale)"},{"item":141,"aboveItem":136,"predItem":4,"type":"A","languageCode":"FR","questionName":"l\u0027(es) épaule(s)"},{"item":142,"aboveItem":136,"predItem":5,"type":"A","languageCode":"FR","questionName":"le(s) bras"},{"item":143,"aboveItem":136,"predItem":6,"type":"A","languageCode":"FR","questionName":"le(s) coude(s)"},{"item":144,"aboveItem":136,"predItem":7,"type":"A","languageCode":"FR","questionName":"le(s) poignet(s)"},{"item":145,"aboveItem":136,"predItem":8,"type":"A","languageCode":"FR","questionName":"la(les) main(s)"},{"item":146,"aboveItem":136,"predItem":9,"type":"A","languageCode":"FR","questionName":"le bassin et les hanches"},{"item":147,"aboveItem":136,"predItem":10,"type":"A","languageCode":"FR","questionName":"le(s) genou(x)"},{"item":148,"aboveItem":136,"predItem":11,"type":"A","languageCode":"FR","questionName":"les chevilles"},{"item":149,"aboveItem":136,"predItem":12,"type":"A","languageCode":"FR","questionName":"le(s) pied(s)"},{"item":150,"aboveItem":136,"predItem":13,"type":"A","languageCode":"FR","questionName":"je ne sais pas (ou autres)"},{"item":153,"aboveItem":152,"predItem":0,"type":"Q","languageCode":"FR","questionName":"Indiquez le type et le moment de l\u0027accident ?"},{"item":154,"aboveItem":153,"predItem":0,"type":"A","languageCode":"FR","questionName":"de travail avec hospitalisation antérieure"},{"item":163,"aboveItem":153,"predItem":1,"type":"A","languageCode":"FR","questionName":"de circulation avec hospitalisation antérieure"},{"item":172,"aboveItem":153,"predItem":2,"type":"A","languageCode":"FR","questionName":"de la vie privée avec hospitalisation antérieure"},{"item":181,"aboveItem":153,"predItem":3,"type":"A","languageCode":"FR","questionName":"pratique d\u0027un sport avec hospitalisation antérieure"},{"item":182,"aboveItem":153,"predItem":4,"type":"A","languageCode":"FR","questionName":"de travail, première  hospitalisation "},{"item":191,"aboveItem":153,"predItem":5,"type":"A","languageCode":"FR","questionName":"de circulation, première hospitalisation"},{"item":200,"aboveItem":153,"predItem":6,"type":"A","languageCode":"FR","questionName":"de la vie privée, première hospitalisation"},{"item":209,"aboveItem":153,"predItem":7,"type":"A","languageCode":"FR","questionName":"pratique d\u0027un sport, première hospitalisation"},{"item":210,"aboveItem":153,"predItem":8,"type":"A","languageCode":"FR","questionName":"je ne sais pas (ou autres)"},{"item":155,"aboveItem":154,"predItem":0,"type":"Q","languageCode":"FR","questionName":"Quelle partie de votre corps est-elle blessée?"},{"item":156,"aboveItem":155,"predItem":0,"type":"A","languageCode":"FR","questionName":"le crâne"},{"item":157,"aboveItem":155,"predItem":1,"type":"A","languageCode":"FR","questionName":"la colonne vertébrale"},{"item":158,"aboveItem":155,"predItem":2,"type":"A","languageCode":"FR","questionName":"le thorax"},{"item":159,"aboveItem":155,"predItem":3,"type":"A","languageCode":"FR","questionName":"les membres supérieurs (épaule, coude, poignet)"},{"item":160,"aboveItem":155,"predItem":4,"type":"A","languageCode":"FR","questionName":"les membres inférieurs (bassin, jambe, genou)"},{"item":161,"aboveItem":155,"predItem":5,"type":"A","languageCode":"FR","questionName":"traumatisme psychologique"},{"item":162,"aboveItem":155,"predItem":6,"type":"A","languageCode":"FR","questionName":"je ne sais pas (ou autres)"},{"item":164,"aboveItem":163,"predItem":0,"type":"Q","languageCode":"FR","questionName":"Quelle partie de votre corps est-elle blessée?"},{"item":165,"aboveItem":164,"predItem":0,"type":"A","languageCode":"FR","questionName":"le crâne"},{"item":166,"aboveItem":164,"predItem":1,"type":"A","languageCode":"FR","questionName":"la colonne vertébrale"},{"item":167,"aboveItem":164,"predItem":2,"type":"A","languageCode":"FR","questionName":"le thorax"},{"item":168,"aboveItem":164,"predItem":3,"type":"A","languageCode":"FR","questionName":"les membres supérieurs (épaule, coude, poignet)"},{"item":169,"aboveItem":164,"predItem":4,"type":"A","languageCode":"FR","questionName":"les membres inférieurs (bassin, jambe, genou)"},{"item":170,"aboveItem":164,"predItem":5,"type":"A","languageCode":"FR","questionName":"traumatisme psychologique"},{"item":171,"aboveItem":164,"predItem":6,"type":"A","languageCode":"FR","questionName":"je ne sais pas (ou autres)"},{"item":173,"aboveItem":172,"predItem":0,"type":"Q","languageCode":"FR","questionName":"Quelle partie de votre corps est-elle blessée?"},{"item":174,"aboveItem":173,"predItem":0,"type":"A","languageCode":"FR","questionName":"le crâne"},{"item":175,"aboveItem":173,"predItem":1,"type":"A","languageCode":"FR","questionName":"la colonne vertébrale"},{"item":176,"aboveItem":173,"predItem":2,"type":"A","languageCode":"FR","questionName":"le thorax"},{"item":177,"aboveItem":173,"predItem":3,"type":"A","languageCode":"FR","questionName":"les membres supérieurs (épaule, coude, poignet)"},{"item":178,"aboveItem":173,"predItem":4,"type":"A","languageCode":"FR","questionName":"les membres inférieurs (bassin, jambe, genou)"},{"item":179,"aboveItem":173,"predItem":5,"type":"A","languageCode":"FR","questionName":"traumatisme psychologique"},{"item":180,"aboveItem":173,"predItem":6,"type":"A","languageCode":"FR","questionName":"je ne sais pas (ou autres)"},{"item":183,"aboveItem":182,"predItem":0,"type":"Q","languageCode":"FR","questionName":"Quelle partie de votre corps est-elle blessée?"},{"item":184,"aboveItem":183,"predItem":0,"type":"A","languageCode":"FR","questionName":"le crâne"},{"item":185,"aboveItem":183,"predItem":1,"type":"A","languageCode":"FR","questionName":"la colonne vertébrale"},{"item":186,"aboveItem":183,"predItem":2,"type":"A","languageCode":"FR","questionName":"le thorax"},{"item":187,"aboveItem":183,"predItem":3,"type":"A","languageCode":"FR","questionName":"les membres supérieurs (épaule, coude, poignet)"},{"item":188,"aboveItem":183,"predItem":4,"type":"A","languageCode":"FR","questionName":"les membres inférieurs (bassin, jambe, genou)"},{"item":189,"aboveItem":183,"predItem":5,"type":"A","languageCode":"FR","questionName":"traumatisme psychologique"},{"item":190,"aboveItem":183,"predItem":6,"type":"A","languageCode":"FR","questionName":"je ne sais pas (ou autres)"},{"item":192,"aboveItem":191,"predItem":0,"type":"Q","languageCode":"FR","questionName":"Quelle partie de votre corps est-elle blessée?"},{"item":193,"aboveItem":192,"predItem":0,"type":"A","languageCode":"FR","questionName":"le crâne"},{"item":194,"aboveItem":192,"predItem":1,"type":"A","languageCode":"FR","questionName":"la colonne vertébrale"},{"item":195,"aboveItem":192,"predItem":2,"type":"A","languageCode":"FR","questionName":"le thorax"},{"item":196,"aboveItem":192,"predItem":3,"type":"A","languageCode":"FR","questionName":"les membres supérieurs (épaule, coude, poignet)"},{"item":197,"aboveItem":192,"predItem":4,"type":"A","languageCode":"FR","questionName":"les membres inférieurs (bassin, jambe, genou)"},{"item":198,"aboveItem":192,"predItem":5,"type":"A","languageCode":"FR","questionName":"traumatisme psychologique"},{"item":199,"aboveItem":192,"predItem":6,"type":"A","languageCode":"FR","questionName":"je ne sais pas (ou autres)"},{"item":201,"aboveItem":200,"predItem":0,"type":"Q","languageCode":"FR","questionName":"Quelle partie de votre corps est-elle blessée?"},{"item":202,"aboveItem":201,"predItem":0,"type":"A","languageCode":"FR","questionName":"le crâne"},{"item":203,"aboveItem":201,"predItem":1,"type":"A","languageCode":"FR","questionName":"la colonne vertébrale"},{"item":204,"aboveItem":201,"predItem":2,"type":"A","languageCode":"FR","questionName":"le thorax"},{"item":205,"aboveItem":201,"predItem":3,"type":"A","languageCode":"FR","questionName":"les membres supérieurs (épaule, coude, poignet)"},{"item":206,"aboveItem":201,"predItem":4,"type":"A","languageCode":"FR","questionName":"les membres inférieurs (bassin, jambe, genou)"},{"item":207,"aboveItem":201,"predItem":5,"type":"A","languageCode":"FR","questionName":"traumatisme psychologique"},{"item":208,"aboveItem":201,"predItem":6,"type":"A","languageCode":"FR","questionName":"je ne sais pas (ou autres)"},{"item":213,"aboveItem":212,"predItem":0,"type":"Q","languageCode":"FR","questionName":"La chirurgie pratiquée concerne:"},{"item":214,"aboveItem":213,"predItem":0,"type":"A","languageCode":"FR","questionName":"les glandes"},{"item":218,"aboveItem":213,"predItem":1,"type":"A","languageCode":"FR","questionName":"les oreilles, le nez ou les yeux"},{"item":231,"aboveItem":213,"predItem":2,"type":"A","languageCode":"FR","questionName":"le coeur et/ou les vaisseaux"},{"item":240,"aboveItem":213,"predItem":3,"type":"A","languageCode":"FR","questionName":"les voies respiratoires"},{"item":244,"aboveItem":213,"predItem":4,"type":"A","languageCode":"FR","questionName":"le système digestif"},{"item":255,"aboveItem":213,"predItem":5,"type":"A","languageCode":"FR","questionName":"les reins ou les voies urinaires"},{"item":266,"aboveItem":213,"predItem":6,"type":"A","languageCode":"FR","questionName":"la gynécologie"},{"item":274,"aboveItem":213,"predItem":7,"type":"A","languageCode":"FR","questionName":"la chirurgie reconstructrice ou plastique"},{"item":281,"aboveItem":213,"predItem":8,"type":"A","languageCode":"FR","questionName":"de la peau"},{"item":287,"aboveItem":213,"predItem":9,"type":"A","languageCode":"FR","questionName":"des os et/ou des articulations"},{"item":302,"aboveItem":213,"predItem":10,"type":"A","languageCode":"FR","questionName":"de la mâchoire et/ou des dents"},{"item":308,"aboveItem":213,"predItem":11,"type":"A","languageCode":"FR","questionName":"je ne sais pas (ou autres)"},{"item":215,"aboveItem":214,"predItem":0,"type":"Q","languageCode":"FR","questionName":"Veuillez préciser l\u0027opération envisagée:"},{"item":216,"aboveItem":215,"predItem":0,"type":"A","languageCode":"FR","questionName":"thyroïde (goitre)"},{"item":217,"aboveItem":215,"predItem":1,"type":"A","languageCode":"FR","questionName":"je ne sais pas (ou autres)"},{"item":219,"aboveItem":218,"predItem":0,"type":"Q","languageCode":"FR","questionName":"Veuillez préciser l\u0027opération envisagée:"},{"item":220,"aboveItem":219,"predItem":0,"type":"A","languageCode":"FR","questionName":"chirurgie de la cloison nasale"},{"item":221,"aboveItem":219,"predItem":1,"type":"A","languageCode":"FR","questionName":"sinusite"},{"item":222,"aboveItem":219,"predItem":2,"type":"A","languageCode":"FR","questionName":"chirurgie de l\u0027oreille pour décollement"},{"item":223,"aboveItem":219,"predItem":3,"type":"A","languageCode":"FR","questionName":"chirurgie de l\u0027oreille pour drains"},{"item":224,"aboveItem":219,"predItem":4,"type":"A","languageCode":"FR","questionName":"otites, écoulement"},{"item":225,"aboveItem":219,"predItem":5,"type":"A","languageCode":"FR","questionName":"cataracte"},{"item":226,"aboveItem":219,"predItem":6,"type":"A","languageCode":"FR","questionName":"glaucome"},{"item":227,"aboveItem":219,"predItem":7,"type":"A","languageCode":"FR","questionName":"strabisme"},{"item":228,"aboveItem":219,"predItem":8,"type":"A","languageCode":"FR","questionName":"décollement de la rétine"},{"item":229,"aboveItem":219,"predItem":9,"type":"A","languageCode":"FR","questionName":"myopie (keratotomie radiaire)"},{"item":230,"aboveItem":219,"predItem":10,"type":"A","languageCode":"FR","questionName":"je ne sais pas (ou autres)"},{"item":232,"aboveItem":231,"predItem":0,"type":"Q","languageCode":"FR","questionName":"Veuillez préciser l\u0027opération envisagée:"},{"item":233,"aboveItem":232,"predItem":0,"type":"A","languageCode":"FR","questionName":"pontage ou dilatation coronarienne"},{"item":234,"aboveItem":232,"predItem":1,"type":"A","languageCode":"FR","questionName":"varices"},{"item":235,"aboveItem":232,"predItem":2,"type":"A","languageCode":"FR","questionName":"valve(s) du coeur"},{"item":236,"aboveItem":232,"predItem":3,"type":"A","languageCode":"FR","questionName":"malformation cardiaque congénitale"},{"item":237,"aboveItem":232,"predItem":4,"type":"A","languageCode":"FR","questionName":"carrefour-prothèse vasculaire"},{"item":238,"aboveItem":232,"predItem":5,"type":"A","languageCode":"FR","questionName":"enlèvement d\u0027une tumeur"},{"item":239,"aboveItem":232,"predItem":6,"type":"A","languageCode":"FR","questionName":"je ne sais pas (ou autres)"},{"item":241,"aboveItem":240,"predItem":0,"type":"Q","languageCode":"FR","questionName":"Veuillez préciser l\u0027opération envisagée:"},{"item":242,"aboveItem":241,"predItem":0,"type":"A","languageCode":"FR","questionName":"enlèvement d\u0027une tumeur"},{"item":243,"aboveItem":241,"predItem":1,"type":"A","languageCode":"FR","questionName":"je ne sais pas (ou autres)"},{"item":245,"aboveItem":244,"predItem":0,"type":"Q","languageCode":"FR","questionName":"Veuillez préciser l\u0027opération envisagée:"},{"item":246,"aboveItem":245,"predItem":0,"type":"A","languageCode":"FR","questionName":"enlèvement d\u0027une tumeur"},{"item":247,"aboveItem":245,"predItem":1,"type":"A","languageCode":"FR","questionName":"gastroplastie"},{"item":248,"aboveItem":245,"predItem":2,"type":"A","languageCode":"FR","questionName":"hernie"},{"item":249,"aboveItem":245,"predItem":3,"type":"A","languageCode":"FR","questionName":"polypes et diverticules"},{"item":250,"aboveItem":245,"predItem":4,"type":"A","languageCode":"FR","questionName":"Crohn"},{"item":251,"aboveItem":245,"predItem":5,"type":"A","languageCode":"FR","questionName":"transplantation du foie"},{"item":252,"aboveItem":245,"predItem":6,"type":"A","languageCode":"FR","questionName":"enlèvement de la vésicule"},{"item":253,"aboveItem":245,"predItem":7,"type":"A","languageCode":"FR","questionName":"opération du pancréas"},{"item":254,"aboveItem":245,"predItem":8,"type":"A","languageCode":"FR","questionName":"je ne sais pas (ou autres)"},{"item":256,"aboveItem":255,"predItem":0,"type":"Q","languageCode":"FR","questionName":"Veuillez préciser l\u0027opération envisagée:"},{"item":257,"aboveItem":256,"predItem":0,"type":"A","languageCode":"FR","questionName":"enlèvement d\u0027un rein"},{"item":258,"aboveItem":256,"predItem":1,"type":"A","languageCode":"FR","questionName":"transplantation d\u0027un rein"},{"item":259,"aboveItem":256,"predItem":2,"type":"A","languageCode":"FR","questionName":"infection d\u0027un rein"},{"item":260,"aboveItem":256,"predItem":3,"type":"A","languageCode":"FR","questionName":"incontinence urinaire"},{"item":261,"aboveItem":256,"predItem":4,"type":"A","languageCode":"FR","questionName":"circoncision (phimosis)"},{"item":262,"aboveItem":256,"predItem":5,"type":"A","languageCode":"FR","questionName":"prothèse pénienne"},{"item":263,"aboveItem":256,"predItem":6,"type":"A","languageCode":"FR","questionName":"tumeur"},{"item":264,"aboveItem":256,"predItem":7,"type":"A","languageCode":"FR","questionName":"la prostate"},{"item":265,"aboveItem":256,"predItem":8,"type":"A","languageCode":"FR","questionName":"je ne sais pas (ou autres)"},{"item":267,"aboveItem":266,"predItem":0,"type":"Q","languageCode":"FR","questionName":"Veuillez préciser l\u0027opération envisagée:"},{"item":268,"aboveItem":267,"predItem":0,"type":"A","languageCode":"FR","questionName":"césarienne"},{"item":269,"aboveItem":267,"predItem":1,"type":"A","languageCode":"FR","questionName":"stérilisation"},{"item":270,"aboveItem":267,"predItem":2,"type":"A","languageCode":"FR","questionName":"enlèvement de la matrice et /ou des ovaires"},{"item":271,"aboveItem":267,"predItem":3,"type":"A","languageCode":"FR","questionName":"endométriose"},{"item":272,"aboveItem":267,"predItem":4,"type":"A","languageCode":"FR","questionName":"tumeur ou kyste"},{"item":273,"aboveItem":267,"predItem":5,"type":"A","languageCode":"FR","questionName":"je ne sais pas (ou autres)"},{"item":275,"aboveItem":274,"predItem":0,"type":"Q","languageCode":"FR","questionName":"Veuillez préciser l\u0027opération envisagée:"},{"item":276,"aboveItem":275,"predItem":0,"type":"A","languageCode":"FR","questionName":"chirurgie reconstructrice suite à un cancer"},{"item":277,"aboveItem":275,"predItem":1,"type":"A","languageCode":"FR","questionName":"seins (hypertrophie mammaire)"},{"item":278,"aboveItem":275,"predItem":2,"type":"A","languageCode":"FR","questionName":"abdomen (ventre, nombril)"},{"item":279,"aboveItem":275,"predItem":3,"type":"A","languageCode":"FR","questionName":"bec de lièvre"},{"item":280,"aboveItem":275,"predItem":4,"type":"A","languageCode":"FR","questionName":"je ne sais pas (ou autres)"},{"item":282,"aboveItem":281,"predItem":0,"type":"Q","languageCode":"FR","questionName":"Veuillez préciser l\u0027opération envisagée:"},{"item":283,"aboveItem":282,"predItem":0,"type":"A","languageCode":"FR","questionName":"tumeur"},{"item":284,"aboveItem":282,"predItem":1,"type":"A","languageCode":"FR","questionName":"brulûres"},{"item":285,"aboveItem":282,"predItem":2,"type":"A","languageCode":"FR","questionName":"ulcère"},{"item":286,"aboveItem":282,"predItem":3,"type":"A","languageCode":"FR","questionName":"je ne sais pas (ou autres)"},{"item":288,"aboveItem":287,"predItem":0,"type":"Q","languageCode":"FR","questionName":"Veuillez préciser l\u0027opération envisagée:"},{"item":289,"aboveItem":288,"predItem":0,"type":"A","languageCode":"FR","questionName":"tumeur"},{"item":290,"aboveItem":288,"predItem":1,"type":"A","languageCode":"FR","questionName":"de la colonne vertébrale (hernie discale)"},{"item":291,"aboveItem":288,"predItem":2,"type":"A","languageCode":"FR","questionName":"le crâne"},{"item":292,"aboveItem":288,"predItem":3,"type":"A","languageCode":"FR","questionName":"l\u0027(les) épaule(s)"},{"item":293,"aboveItem":288,"predItem":4,"type":"A","languageCode":"FR","questionName":"le(s) bras"},{"item":294,"aboveItem":288,"predItem":5,"type":"A","languageCode":"FR","questionName":"le(s) coude(s)"},{"item":295,"aboveItem":288,"predItem":6,"type":"A","languageCode":"FR","questionName":"le(s) poignet(s)"},{"item":296,"aboveItem":288,"predItem":7,"type":"A","languageCode":"FR","questionName":"la (les) main(s)"},{"item":297,"aboveItem":288,"predItem":8,"type":"A","languageCode":"FR","questionName":"le bassin et les hanches"},{"item":298,"aboveItem":288,"predItem":9,"type":"A","languageCode":"FR","questionName":"le(s) genou(x)"},{"item":299,"aboveItem":288,"predItem":10,"type":"A","languageCode":"FR","questionName":"les chevilles"},{"item":300,"aboveItem":288,"predItem":11,"type":"A","languageCode":"FR","questionName":"le(s) pied(s)"},{"item":301,"aboveItem":288,"predItem":12,"type":"A","languageCode":"FR","questionName":"je ne sais pas (ou autres)"},{"item":303,"aboveItem":302,"predItem":0,"type":"Q","languageCode":"FR","questionName":"Veuillez préciser l\u0027opération envisagée:"},{"item":304,"aboveItem":303,"predItem":0,"type":"A","languageCode":"FR","questionName":"chirurgie réparatrice suite à un accident"},{"item":305,"aboveItem":303,"predItem":1,"type":"A","languageCode":"FR","questionName":"une maladie ou malformation physique"},{"item":306,"aboveItem":303,"predItem":2,"type":"A","languageCode":"FR","questionName":"prothèse dentaire fixe (implants)"},{"item":307,"aboveItem":303,"predItem":3,"type":"A","languageCode":"FR","questionName":"je ne sais pas (ou autres)"},{"item":310,"aboveItem":309,"predItem":0,"type":"Q","languageCode":"FR","questionName":"Les soins ou la chirurgie sont la conséquence"},{"item":311,"aboveItem":310,"predItem":0,"type":"A","languageCode":"FR","questionName":"d\u0027un accident"},{"item":312,"aboveItem":310,"predItem":1,"type":"A","languageCode":"FR","questionName":"d\u0027une maladie ou malformation physique"},{"item":313,"aboveItem":310,"predItem":2,"type":"A","languageCode":"FR","questionName":"d\u0027orthodontie"},{"item":314,"aboveItem":310,"predItem":3,"type":"A","languageCode":"FR","questionName":"d\u0027une prothèse dentaire fixe (implants ou autres)"},{"item":315,"aboveItem":310,"predItem":4,"type":"A","languageCode":"FR","questionName":"je ne sais pas (ou autres)"},{"item":317,"aboveItem":316,"predItem":0,"type":"Q","languageCode":"FR","questionName":"Les examens médicaux concernent"},{"item":318,"aboveItem":317,"predItem":0,"type":"A","languageCode":"FR","questionName":"l\u0027étude du sommeil"},{"item":319,"aboveItem":317,"predItem":1,"type":"A","languageCode":"FR","questionName":"une observation pour déterminer la maladie"},{"item":320,"aboveItem":317,"predItem":2,"type":"A","languageCode":"FR","questionName":"un check-up"},{"item":321,"aboveItem":317,"predItem":3,"type":"A","languageCode":"FR","questionName":"je ne sais pas (ou autres)"}]
}